$$SOE
2460735.500000000, A.D. 2025-Mar-01 00:00:00.0000, 4.437975506764673E+07, 4.805898637710354E+08, 6.659480861457282E+07,
2460742.500000000, A.D. 2025-Mar-08 00:00:00.0000, 3.487012201965247E+07, 4.794437033156863E+08, 6.627908169066149E+07,
2460749.500000000, A.D. 2025-Mar-15 00:00:00.0000, 2.534577933757775E+07, 4.780942885524193E+08, 6.593506507100454E+07,
2460756.500000000, A.D. 2025-Mar-22 00:00:00.0000, 1.581064482945780E+07, 4.765396904731535E+08, 6.556256473985627E+07,
2460763.500000000, A.D. 2025-Mar-29 00:00:00.0000, 6.268735981114173E+06, 4.747780128757554E+08, 6.516139315679783E+07,
2460770.500000000, A.D. 2025-Apr-05 00:00:00.0000, -3.275826584142714E+06, 4.728073946788281E+08, 6.473136958524063E+07,
2460777.500000000, A.D. 2025-Apr-12 00:00:00.0000, -1.281881587517842E+07, 4.706260134423453E+08, 6.427232055353045E+07,
2460784.500000000, A.D. 2025-Apr-19 00:00:00.0000, -2.235589572754589E+07, 4.682320892226081E+08, 6.378408039470077E+07,
2460791.500000000, A.D. 2025-Apr-26 00:00:00.0000, -3.188261816082476E+07, 4.656238885691669E+08, 6.326649182445508E+07,
2460798.500000000, A.D. 2025-May-03 00:00:00.0000, -4.139442079571742E+07, 4.627997286941500E+08, 6.271940654971102E+07,
2460805.500000000, A.D. 2025-May-10 00:00:00.0000, -5.088662431397682E+07, 4.597579818341614E+08, 6.214268590703177E+07,
2460812.500000000, A.D. 2025-May-17 00:00:00.0000, -6.035442993731366E+07, 4.564970797752626E+08, 6.153620152548486E+07,
2460819.500000000, A.D. 2025-May-24 00:00:00.0000, -6.979291676564014E+07, 4.530155184981003E+08, 6.089983599480942E+07,
2460826.500000000, A.D. 2025-May-31 00:00:00.0000, -7.919703857282861E+07, 4.493118632658197E+08, 6.023348352732483E+07,
2460833.500000000, A.D. 2025-Jun-07 00:00:00.0000, -8.856162047849725E+07, 4.453847553720834E+08, 5.953705075028291E+07,
2460840.500000000, A.D. 2025-Jun-14 00:00:00.0000, -9.788135787815478E+07, 4.412329198947390E+08, 5.881045779231679E+07,
2460847.500000000, A.D. 2025-Jun-21 00:00:00.0000, -1.071508164341829E+08, 4.368551711922835E+08, 5.805363928571552E+07,
2460854.500000000, A.D. 2025-Jun-28 00:00:00.0000, -1.163644300237788E+08, 4.322504179170235E+08, 5.726654514294729E+07,
2460861.500000000, A.D. 2025-Jul-05 00:00:00.0000, -1.255164981857818E+08, 4.274176697140033E+08, 5.644914142422098E+07,
2460868.500000000, A.D. 2025-Jul-12 00:00:00.0000, -1.346011842826957E+08, 4.223560448103597E+08, 5.560141134033471E+07,
2460875.500000000, A.D. 2025-Jul-19 00:00:00.0000, -1.436125142164352E+08, 4.170647779277026E+08, 5.472335632697958E+07,
2460882.500000000, A.D. 2025-Jul-26 00:00:00.0000, -1.525443755186970E+08, 4.115432284678394E+08, 5.381499716710597E+07,
2460889.500000000, A.D. 2025-Aug-02 00:00:00.0000, -1.613905167837403E+08, 4.057908889993703E+08, 5.287637515745020E+07,
2460896.500000000, A.D. 2025-Aug-09 00:00:00.0000, -1.701445474556720E+08, 3.998073940349466E+08, 5.190755331599256E+07,
2460903.500000000, A.D. 2025-Aug-16 00:00:00.0000, -1.787999379312406E+08, 3.935925290385424E+08, 5.090861761796710E+07,
2460910.500000000, A.D. 2025-Aug-23 00:00:00.0000, -1.873500197260444E+08, 3.871462396795898E+08, 4.987967823449752E+07,
2460917.500000000, A.D. 2025-Aug-30 00:00:00.0000, -1.957879854187098E+08, 3.804686420461150E+08, 4.882087080132298E+07,
2460924.500000000, A.D. 2025-Sep-06 00:00:00.0000, -2.041068898376558E+08, 3.735600348140003E+08, 4.773235792848541E+07,
2460931.500000000, A.D. 2025-Sep-13 00:00:00.0000, -2.122996542077338E+08, 3.664209108839167E+08, 4.661433089966534E+07,
2460938.500000000, A.D. 2025-Sep-20 00:00:00.0000, -2.203590700299130E+08, 3.590519668275557E+08, 4.546701112370312E+07,
2460945.500000000, A.D. 2025-Sep-27 00:00:00.0000, -2.282778016874604E+08, 3.514541132363210E+08, 4.429065149225350E+07,
2460952.500000000, A.D. 2025-Oct-04 00:00:00.0000, -2.360483898488784E+08, 3.436284864920633E+08, 4.308553786877421E+07,
2460959.500000000, A.D. 2025-Oct-11 00:00:00.0000, -2.436632560945355E+08, 3.355764609893851E+08, 4.185199066105375E+07,
2460966.500000000, A.D. 2025-Oct-18 00:00:00.0000, -2.511147085400915E+08, 3.272996615003557E+08, 4.059036642330253E+07,
2460973.500000000, A.D. 2025-Oct-25 00:00:00.0000, -2.583949483775190E+08, 3.187999756539617E+08, 3.930105947022493E+07,
2460980.500000000, A.D. 2025-Nov-01 00:00:00.0000, -2.654960773561249E+08, 3.100795665036616E+08, 3.798450349459064E+07,
2460987.500000000, A.D. 2025-Nov-08 00:00:00.0000, -2.724101062309044E+08, 3.011408851036162E+08, 3.664117317407595E+07,
2460994.500000000, A.D. 2025-Nov-15 00:00:00.0000, -2.791289640863951E+08, 2.919866829774166E+08, 3.527158573692158E+07,
2461001.500000000, A.D. 2025-Nov-22 00:00:00.0000, -2.856445081832530E+08, 2.826200246349216E+08, 3.387630246101613E+07,
2461008.500000000, A.D. 2025-Nov-29 00:00:00.0000, -2.919485345402144E+08, 2.730443011997175E+08, 3.245593020478874E+07,
2461015.500000000, A.D. 2025-Dec-06 00:00:00.0000, -2.980327915839601E+08, 2.632632449267655E+08, 3.101112315037860E+07,
2461022.500000000, A.D. 2025-Dec-13 00:00:00.0000, -3.038889964770492E+08, 2.532809411492281E+08, 2.954258442967588E+07,
2461029.500000000, A.D. 2025-Dec-20 00:00:00.0000, -3.095088506672943E+08, 2.431018385741981E+08, 2.805106738231409E+07,
2461036.500000000, A.D. 2025-Dec-27 00:00:00.0000, -3.148840557680448E+08, 2.327307604042030E+08, 2.653737674018267E+07,
2461043.500000000, A.D. 2026-Jan-03 00:00:00.0000, -3.200063312590887E+08, 2.221729155507245E+08, 2.500236980524899E+07,
2461050.500000000, A.D. 2026-Jan-10 00:00:00.0000, -3.248674339162360E+08, 2.114339091344574E+08, 2.344695753723873E+07,
2461057.500000000, A.D. 2026-Jan-17 00:00:00.0000, -3.294591787428676E+08, 2.005197520443152E+08, 2.187210550347826E+07,
2461064.500000000, A.D. 2026-Jan-24 00:00:00.0000, -3.337734613193982E+08, 1.894368694334915E+08, 2.027883466593704E+07,
2461071.500000000, A.D. 2026-Jan-31 00:00:00.0000, -3.378022815272586E+08, 1.781921079944391E+08, 1.866822198236828E+07,
2461078.500000000, A.D. 2026-Feb-07 00:00:00.0000, -3.415377685500411E+08, 1.667927417994419E+08, 1.704140079033335E+07,
2461085.500000000, A.D. 2026-Feb-14 00:00:00.0000, -3.449722068449422E+08, 1.552464765314402E+08, 1.539956092839190E+07,
2461092.500000000, A.D. 2026-Feb-21 00:00:00.0000, -3.480980626232733E+08, 1.435614525191348E+08, 1.374394858467809E+07,
2461099.500000000, A.D. 2026-Feb-28 00:00:00.0000, -3.509080118308451E+08, 1.317462475650653E+08, 1.207586604539212E+07,
2461106.500000000, A.D. 2026-Mar-07 00:00:00.0000, -3.533949715738372E+08, 1.198098774534886E+08, 1.039667135192057E+07,
2461113.500000000, A.D. 2026-Mar-14 00:00:00.0000, -3.555521320785790E+08, 1.077617916482936E+08, 8.707777401753411E+06,
2461120.500000000, A.D. 2026-Mar-21 00:00:00.0000, -3.573729872379733E+08, 9.561186692584813E+07, 7.010650548778087E+06,
2461127.500000000, A.D. 2026-Mar-28 00:00:00.0000, -3.588513655707788E+08, 8.337039982394722E+07, 5.306808955561519E+06,
2461134.500000000, A.D. 2026-Apr-04 00:00:00.0000, -3.599814619992133E+08, 7.104809681079344E+07, 3.597820660428364E+06,
2461141.500000000, A.D. 2026-Apr-11 00:00:00.0000, -3.607578699499087E+08, 5.865606170461488E+07, 1.885301293853484E+06,
2461148.500000000, A.D. 2026-Apr-18 00:00:00.0000, -3.611756133741723E+08, 4.620578024827208E+07, 1.709114211664870E+05,
2461155.500000000, A.D. 2026-Apr-25 00:00:00.0000, -3.612301783767508E+08, 3.370910178765894E+07, -1.543646495868899E+06,
2461162.500000000, A.D. 2026-May-02 00:00:00.0000, -3.609175441403192E+08, 2.117821798499957E+07, -3.256631524430539E+06,
2461169.500000000, A.D. 2026-May-09 00:00:00.0000, -3.602342127251198E+08, 8.625638491323132E+06, -4.966268086115751E+06,
2461176.500000000, A.D. 2026-May-16 00:00:00.0000, -3.591772370596175E+08, -3.935836260392881E+06, -6.670750197528668E+06,
2461183.500000000, A.D. 2026-May-23 00:00:00.0000, -3.577442467580400E+08, -1.649314406093924E+07, -8.368246033912604E+06,
2461190.500000000, A.D. 2026-May-30 00:00:00.0000, -3.559334735305817E+08, -2.903299131551097E+07, -1.005690258092779E+07,
2461197.500000000, A.D. 2026-Jun-06 00:00:00.0000, -3.537437761988034E+08, -4.154188795978783E+07, -1.173485059022868E+07,
2461204.500000000, A.D. 2026-Jun-13 00:00:00.0000, -3.511746613554301E+08, -5.400618652598950E+07, -1.340021013083241E+07,
2461211.500000000, A.D. 2026-Jun-20 00:00:00.0000, -3.482262998809010E+08, -6.641212221413006E+07, -1.505109641692778E+07,
2461218.500000000, A.D. 2026-Jun-27 00:00:00.0000, -3.448995407405657E+08, -7.874585405604361E+07, -1.668562574424137E+07,
2461225.500000000, A.D. 2026-Jul-04 00:00:00.0000, -3.411959218167844E+08, -9.099350766479246E+07, -1.830192155420141E+07,
2461232.500000000, A.D. 2026-Jul-11 00:00:00.0000, -3.371176773126371E+08, -1.031412193892241E+08, -1.989812061250599E+07,
2461239.500000000, A.D. 2026-Jul-18 00:00:00.0000, -3.326677414663054E+08, -1.151751815078183E+08, -2.147237925858190E+07,
2461246.500000000, A.D. 2026-Jul-25 00:00:00.0000, -3.278497484280316E+08, -1.270816880933407E+08, -2.302287967636855E+07,
2461253.500000000, A.D. 2026-Aug-01 00:00:00.0000, -3.226680281728097E+08, -1.388471812090154E+08, -2.454783614163809E+07,
2461260.500000000, A.D. 2026-Aug-08 00:00:00.0000, -3.171275981998512E+08, -1.504582970702963E+08, -2.604550121395817E+07,
2461267.500000000, A.D. 2026-Aug-15 00:00:00.0000, -3.112341506156676E+08, -1.619019113141122E+08, -2.751417181937732E+07,
2461274.500000000, A.D. 2026-Aug-22 00:00:00.0000, -3.049940354211319E+08, -1.731651817485602E+08, -2.895219499954654E+07,
2461281.500000000, A.D. 2026-Aug-29 00:00:00.0000, -2.984142423998051E+08, -1.842355895604089E+08, -3.035797317686527E+07,
2461288.500000000, A.D. 2026-Sep-05 00:00:00.0000, -2.915023796335971E+08, -1.951009814710620E+08, -3.172996931671324E+07,
2461295.500000000, A.D. 2026-Sep-12 00:00:00.0000, -2.842666463989688E+08, -2.057496099884736E+08, -3.306671196279584E+07,
2461302.500000000, A.D. 2026-Sep-19 00:00:00.0000, -2.767158025653509E+08, -2.161701698787329E+08, -3.436679980606927E+07,
$$EOE